{
"type": "FeatureCollection",
"name": "data",
"crs": { "type": "name", "properties": { "name": "urn:ogc:def:crs:OGC:1.3:CRS84" } },
"xy_coordinate_resolution": 1e-15,
"features": [
{ "type": "Feature", "properties": { "id": 0, "id_proy": "proy_001", "proyecto": "Mejoramiento de la cadena productiva bovino de leche y derivados en los 08 distritos de la provincia de Vilcas Huamán del departamento de Ayacucho", "provincia": "Vilcas Huaman", "distrito": "VILCASHUAMÁN", "comunidad": "SAN FRANCISCO DE PUJAS", "estado": "En ejecución", "presupuest": null, "beneficiar": null, "descripcio": null, "fecha_inic": null, "fecha_fin": null, "foto1": null, "foto2": null, "foto3": null }, "geometry": { "type": "Point", "coordinates": [ -73.825143869991052, -13.659532900128127 ] } },
{ "type": "Feature", "properties": { "id": 1, "id_proy": "proy_001", "proyecto": "Mejoramiento de la cadena productiva bovino de leche y derivados en los 08 distritos de la provincia de Vilcas Huamán del departamento de Ayacucho", "provincia": "Vilcas Huaman", "distrito": "VILCAHUAMÁN", "comunidad": "Huayraccasa", "estado": "En ejecución", "presupuest": null, "beneficiar": null, "descripcio": null, "fecha_inic": null, "fecha_fin": null, "foto1": null, "foto2": null, "foto3": null }, "geometry": { "type": "Point", "coordinates": [ -73.971350660813414, -13.659268055331847 ] } },
{ "type": "Feature", "properties": { "id": 2, "id_proy": "proy_001", "proyecto": "Mejoramiento de la cadena productiva bovino de leche y derivados en los 08 distritos de la provincia de Vilcas Huamán del departamento de Ayacucho", "provincia": "Vilcas Huaman", "distrito": "VILCASHUAMAN", "comunidad": "PUTACCA", "estado": "En ejecución", "presupuest": null, "beneficiar": null, "descripcio": null, "fecha_inic": null, "fecha_fin": null, "foto1": null, "foto2": null, "foto3": null }, "geometry": { "type": "Point", "coordinates": [ -73.910467515883923, -13.693130799400084 ] } },
{ "type": "Feature", "properties": { "id": 3, "id_proy": "proy_001", "proyecto": "Mejoramiento de la cadena productiva bovino de leche y derivados en los 08 distritos de la provincia de Vilcas Huamán del departamento de Ayacucho", "provincia": "Vilcas Huaman", "distrito": "VILCASHUAMÁN", "comunidad": "MICHCABAMBA", "estado": "En ejecución", "presupuest": null, "beneficiar": null, "descripcio": null, "fecha_inic": null, "fecha_fin": null, "foto1": null, "foto2": null, "foto3": null }, "geometry": { "type": "Point", "coordinates": [ -73.982629933313092, -13.65632048854048 ] } },
{ "type": "Feature", "properties": { "id": 4, "id_proy": "proy_001", "proyecto": "Mejoramiento de la cadena productiva bovino de leche y derivados en los 08 distritos de la provincia de Vilcas Huamán del departamento de Ayacucho", "provincia": "Vilcas Huaman", "distrito": "VILCASHUAMÁN", "comunidad": "VISCACHAYOCC", "estado": "En ejecución", "presupuest": null, "beneficiar": null, "descripcio": null, "fecha_inic": null, "fecha_fin": null, "foto1": null, "foto2": null, "foto3": null }, "geometry": { "type": "Point", "coordinates": [ -73.939918257228541, -13.661972588074869 ] } },
{ "type": "Feature", "properties": { "id": 5, "id_proy": "proy_001", "proyecto": "Mejoramiento de la cadena productiva bovino de leche y derivados en los 08 distritos de la provincia de Vilcas Huamán del departamento de Ayacucho", "provincia": "Vilcas Huaman", "distrito": "VILCASHUAMÁN", "comunidad": "CHANEN", "estado": "En ejecución", "presupuest": null, "beneficiar": null, "descripcio": null, "fecha_inic": null, "fecha_fin": null, "foto1": null, "foto2": null, "foto3": null }, "geometry": { "type": "Point", "coordinates": [ -73.947900990970012, -13.640460958975956 ] } },
{ "type": "Feature", "properties": { "id": 6, "id_proy": "proy_001", "proyecto": "Mejoramiento de la cadena productiva bovino de leche y derivados en los 08 distritos de la provincia de Vilcas Huamán del departamento de Ayacucho", "provincia": "Vilcas Huaman", "distrito": "VILCASHUAMÁN", "comunidad": "SAN JUAN DE CHITO", "estado": "En ejecución", "presupuest": null, "beneficiar": null, "descripcio": null, "fecha_inic": null, "fecha_fin": null, "foto1": null, "foto2": null, "foto3": null }, "geometry": { "type": "Point", "coordinates": [ -73.925367372539597, -13.641171366194158 ] } },
{ "type": "Feature", "properties": { "id": 7, "id_proy": "proy_001", "proyecto": "Mejoramiento de la cadena productiva bovino de leche y derivados en los 08 distritos de la provincia de Vilcas Huamán del departamento de Ayacucho", "provincia": "Vilcas Huaman", "distrito": "VILCASHUAMÁN", "comunidad": "PARCCO", "estado": "En ejecución", "presupuest": null, "beneficiar": null, "descripcio": null, "fecha_inic": null, "fecha_fin": null, "foto1": null, "foto2": null, "foto3": null }, "geometry": { "type": "Point", "coordinates": [ -73.82783905527063, -13.616941183157113 ] } },
{ "type": "Feature", "properties": { "id": 8, "id_proy": "proy_001", "proyecto": "Mejoramiento de la cadena productiva bovino de leche y derivados en los 08 distritos de la provincia de Vilcas Huamán del departamento de Ayacucho", "provincia": "Vilcas Huaman", "distrito": "VILCASHUAMÁN", "comunidad": "HUACCAÑA", "estado": "En ejecución", "presupuest": null, "beneficiar": null, "descripcio": null, "fecha_inic": null, "fecha_fin": null, "foto1": null, "foto2": null, "foto3": null }, "geometry": { "type": "Point", "coordinates": [ -73.845555614230079, -13.632959619599387 ] } },
{ "type": "Feature", "properties": { "id": 9, "id_proy": "proy_001", "proyecto": "Mejoramiento de la cadena productiva bovino de leche y derivados en los 08 distritos de la provincia de Vilcas Huamán del departamento de Ayacucho", "provincia": "Vilcas Huaman", "distrito": "VILCASHUAMÁN", "comunidad": "SANTA CRUZ DE PUCARAACCAY", "estado": "En ejecución", "presupuest": null, "beneficiar": null, "descripcio": null, "fecha_inic": null, "fecha_fin": null, "foto1": null, "foto2": null, "foto3": null }, "geometry": { "type": "Point", "coordinates": [ -73.872825280781839, -13.657113465018689 ] } },
{ "type": "Feature", "properties": { "id": 10, "id_proy": "proy_001", "proyecto": "Mejoramiento de la cadena productiva bovino de leche y derivados en los 08 distritos de la provincia de Vilcas Huamán del departamento de Ayacucho", "provincia": "Vilcas Huaman", "distrito": "VILCASHUAMÁN", "comunidad": "SANTA ROSA DE HUANCAPUQUIO", "estado": "En ejecución", "presupuest": null, "beneficiar": null, "descripcio": null, "fecha_inic": null, "fecha_fin": null, "foto1": null, "foto2": null, "foto3": null }, "geometry": { "type": "Point", "coordinates": [ -73.883593558615829, -13.657655617895745 ] } },
{ "type": "Feature", "properties": { "id": 11, "id_proy": "proy_001", "proyecto": "Mejoramiento de la cadena productiva bovino de leche y derivados en los 08 distritos de la provincia de Vilcas Huamán del departamento de Ayacucho", "provincia": "Vilcas Huaman", "distrito": "VILCASHUAMÁN", "comunidad": "ESTANCIAPATA", "estado": "En ejecución", "presupuest": null, "beneficiar": null, "descripcio": null, "fecha_inic": null, "fecha_fin": null, "foto1": null, "foto2": null, "foto3": null }, "geometry": { "type": "Point", "coordinates": [ -73.957980672333605, -13.663415213259192 ] } },
{ "type": "Feature", "properties": { "id": 12, "id_proy": "proy_001", "proyecto": "Mejoramiento de la cadena productiva bovino de leche y derivados en los 08 distritos de la provincia de Vilcas Huamán del departamento de Ayacucho", "provincia": "Vilcas Huaman", "distrito": "VILCASHUAMÁN", "comunidad": "SANTA ROSA DE SOQUIA", "estado": "En ejecución", "presupuest": null, "beneficiar": null, "descripcio": null, "fecha_inic": null, "fecha_fin": null, "foto1": null, "foto2": null, "foto3": null }, "geometry": { "type": "Point", "coordinates": [ -73.958205011455163, -13.680329448277075 ] } },
{ "type": "Feature", "properties": { "id": 13, "id_proy": "proy_001", "proyecto": "Mejoramiento de la cadena productiva bovino de leche y derivados en los 08 distritos de la provincia de Vilcas Huamán del departamento de Ayacucho", "provincia": "Vilcas Huaman", "distrito": "VILCASHUAMÁN", "comunidad": "PILLUCHO", "estado": "En ejecución", "presupuest": null, "beneficiar": null, "descripcio": null, "fecha_inic": null, "fecha_fin": null, "foto1": null, "foto2": null, "foto3": null }, "geometry": { "type": "Point", "coordinates": [ -73.974516335083891, -13.686785429663656 ] } },
{ "type": "Feature", "properties": { "id": 14, "id_proy": "proy_001", "proyecto": "Mejoramiento de la cadena productiva bovino de leche y derivados en los 08 distritos de la provincia de Vilcas Huamán del departamento de Ayacucho", "provincia": "Vilcas Huaman", "distrito": "VILCASHUAMÁN", "comunidad": "COLPAPAMPA", "estado": "En ejecución", "presupuest": null, "beneficiar": null, "descripcio": null, "fecha_inic": null, "fecha_fin": null, "foto1": null, "foto2": null, "foto3": null }, "geometry": { "type": "Point", "coordinates": [ -73.88413259567173, -13.642104554623318 ] } },
{ "type": "Feature", "properties": { "id": 15, "id_proy": "proy_001", "proyecto": "Mejoramiento de la cadena productiva bovino de leche y derivados en los 08 distritos de la provincia de Vilcas Huamán del departamento de Ayacucho", "provincia": "Vilcas Huaman", "distrito": "VILCASHUAMÁN", "comunidad": "POMATAMBO", "estado": "En ejecución", "presupuest": null, "beneficiar": null, "descripcio": null, "fecha_inic": null, "fecha_fin": null, "foto1": null, "foto2": null, "foto3": null }, "geometry": { "type": "Point", "coordinates": [ -73.866646607476014, -13.64639192450166 ] } },
{ "type": "Feature", "properties": { "id": 16, "id_proy": "proy_001", "proyecto": "Mejoramiento de la cadena productiva bovino de leche y derivados en los 08 distritos de la provincia de Vilcas Huamán del departamento de Ayacucho", "provincia": "Vilcas Huaman", "distrito": "VILCASHUAMÁN", "comunidad": "SAN JOSÉ DE CHURIA", "estado": "En ejecución", "presupuest": null, "beneficiar": null, "descripcio": null, "fecha_inic": null, "fecha_fin": null, "foto1": null, "foto2": null, "foto3": null }, "geometry": { "type": "Point", "coordinates": [ -73.928698185330163, -13.691730237800972 ] } },
{ "type": "Feature", "properties": { "id": 17, "id_proy": "proy_001", "proyecto": "Mejoramiento de la cadena productiva bovino de leche y derivados en los 08 distritos de la provincia de Vilcas Huamán del departamento de Ayacucho", "provincia": "Vilcas Huaman", "distrito": "VILCASHUAMÁN", "comunidad": "HUAYLLAN", "estado": "En ejecución", "presupuest": null, "beneficiar": null, "descripcio": null, "fecha_inic": null, "fecha_fin": null, "foto1": null, "foto2": null, "foto3": null }, "geometry": { "type": "Point", "coordinates": [ -73.860792883690763, -13.670942140283843 ] } },
{ "type": "Feature", "properties": { "id": 18, "id_proy": "proy_001", "proyecto": "Mejoramiento de la cadena productiva bovino de leche y derivados en los 08 distritos de la provincia de Vilcas Huamán del departamento de Ayacucho", "provincia": "Vilcas Huaman", "distrito": "VISCHONGO", "comunidad": "SAN JOSÉ DE PUCARAQAY", "estado": "En ejecución", "presupuest": null, "beneficiar": null, "descripcio": null, "fecha_inic": null, "fecha_fin": null, "foto1": null, "foto2": null, "foto3": null }, "geometry": { "type": "Point", "coordinates": [ -73.968142867057153, -13.615623210261534 ] } },
{ "type": "Feature", "properties": { "id": 19, "id_proy": "proy_001", "proyecto": "Mejoramiento de la cadena productiva bovino de leche y derivados en los 08 distritos de la provincia de Vilcas Huamán del departamento de Ayacucho", "provincia": "Vilcas Huaman", "distrito": "VISCHONGO", "comunidad": "HERPAPUQUIO", "estado": "En ejecución", "presupuest": null, "beneficiar": null, "descripcio": null, "fecha_inic": null, "fecha_fin": null, "foto1": null, "foto2": null, "foto3": null }, "geometry": { "type": "Point", "coordinates": [ -73.984379794987888, -13.628296922087761 ] } },
{ "type": "Feature", "properties": { "id": 20, "id_proy": "proy_001", "proyecto": "Mejoramiento de la cadena productiva bovino de leche y derivados en los 08 distritos de la provincia de Vilcas Huamán del departamento de Ayacucho", "provincia": "Vilcas Huaman", "distrito": "VISCHONGO", "comunidad": "ÑUÑUNHUAYCCO", "estado": "En ejecución", "presupuest": null, "beneficiar": null, "descripcio": null, "fecha_inic": null, "fecha_fin": null, "foto1": null, "foto2": null, "foto3": null }, "geometry": { "type": "Point", "coordinates": [ -74.033355795433295, -13.57632559310453 ] } },
{ "type": "Feature", "properties": { "id": 21, "id_proy": "proy_001", "proyecto": "Mejoramiento de la cadena productiva bovino de leche y derivados en los 08 distritos de la provincia de Vilcas Huamán del departamento de Ayacucho", "provincia": "Vilcas Huaman", "distrito": "VISCHONGO", "comunidad": "TECCOYBAMBA", "estado": "En ejecución", "presupuest": null, "beneficiar": null, "descripcio": null, "fecha_inic": null, "fecha_fin": null, "foto1": null, "foto2": null, "foto3": null }, "geometry": { "type": "Point", "coordinates": [ -74.010415567205968, -13.586332966516187 ] } },
{ "type": "Feature", "properties": { "id": 22, "id_proy": "proy_001", "proyecto": "Mejoramiento de la cadena productiva bovino de leche y derivados en los 08 distritos de la provincia de Vilcas Huamán del departamento de Ayacucho", "provincia": "Vilcas Huaman", "distrito": "VISCHONGO", "comunidad": "CHIRIBAMBA", "estado": "En ejecución", "presupuest": null, "beneficiar": null, "descripcio": null, "fecha_inic": null, "fecha_fin": null, "foto1": null, "foto2": null, "foto3": null }, "geometry": { "type": "Point", "coordinates": [ -74.026889368025479, -13.568184859038517 ] } },
{ "type": "Feature", "properties": { "id": 23, "id_proy": "proy_001", "proyecto": "Mejoramiento de la cadena productiva bovino de leche y derivados en los 08 distritos de la provincia de Vilcas Huamán del departamento de Ayacucho", "provincia": "Vilcas Huaman", "distrito": "VISCHONGO", "comunidad": "PAQCHA", "estado": "En ejecución", "presupuest": null, "beneficiar": null, "descripcio": null, "fecha_inic": null, "fecha_fin": null, "foto1": null, "foto2": null, "foto3": null }, "geometry": { "type": "Point", "coordinates": [ -74.017357764945942, -13.574315210381917 ] } },
{ "type": "Feature", "properties": { "id": 24, "id_proy": "proy_001", "proyecto": "Mejoramiento de la cadena productiva bovino de leche y derivados en los 08 distritos de la provincia de Vilcas Huamán del departamento de Ayacucho", "provincia": "Vilcas Huaman", "distrito": "VISCHONGO", "comunidad": "QOCHA", "estado": "En ejecución", "presupuest": null, "beneficiar": null, "descripcio": null, "fecha_inic": null, "fecha_fin": null, "foto1": null, "foto2": null, "foto3": null }, "geometry": { "type": "Point", "coordinates": [ -73.986390177710518, -13.594115354417148 ] } },
{ "type": "Feature", "properties": { "id": 25, "id_proy": "proy_001", "proyecto": "Mejoramiento de la cadena productiva bovino de leche y derivados en los 08 distritos de la provincia de Vilcas Huamán del departamento de Ayacucho", "provincia": "Vilcas Huaman", "distrito": "VISCHONGO", "comunidad": "CACHUBAMBA", "estado": "En ejecución", "presupuest": null, "beneficiar": null, "descripcio": null, "fecha_inic": null, "fecha_fin": null, "foto1": null, "foto2": null, "foto3": null }, "geometry": { "type": "Point", "coordinates": [ -73.973465421113303, -13.599423736590998 ] } },
{ "type": "Feature", "properties": { "id": 26, "id_proy": "proy_001", "proyecto": "Mejoramiento de la cadena productiva bovino de leche y derivados en los 08 distritos de la provincia de Vilcas Huamán del departamento de Ayacucho", "provincia": "Vilcas Huaman", "distrito": "VISCHONGO", "comunidad": "QOLLPACUCHO", "estado": "En ejecución", "presupuest": null, "beneficiar": null, "descripcio": null, "fecha_inic": null, "fecha_fin": null, "foto1": null, "foto2": null, "foto3": null }, "geometry": { "type": "Point", "coordinates": [ -73.984523538364883, -13.620620823303547 ] } },
{ "type": "Feature", "properties": { "id": 27, "id_proy": "proy_001", "proyecto": "Mejoramiento de la cadena productiva bovino de leche y derivados en los 08 distritos de la provincia de Vilcas Huamán del departamento de Ayacucho", "provincia": "Vilcas Huaman", "distrito": "VISCHONGO", "comunidad": "QOLLCCAPUQUIO", "estado": "En ejecución", "presupuest": null, "beneficiar": null, "descripcio": null, "fecha_inic": null, "fecha_fin": null, "foto1": null, "foto2": null, "foto3": null }, "geometry": { "type": "Point", "coordinates": [ -73.996221414871556, -13.623013846846453 ] } },
{ "type": "Feature", "properties": { "id": 28, "id_proy": "proy_001", "proyecto": "Mejoramiento de la cadena productiva bovino de leche y derivados en los 08 distritos de la provincia de Vilcas Huamán del departamento de Ayacucho", "provincia": "Vilcas Huaman", "distrito": "VISCHONGO", "comunidad": "VILLA DE LOS INCAS HUAYRAPATA", "estado": "En ejecución", "presupuest": null, "beneficiar": null, "descripcio": null, "fecha_inic": null, "fecha_fin": null, "foto1": null, "foto2": null, "foto3": null }, "geometry": { "type": "Point", "coordinates": [ -74.005623446456411, -13.603594319076945 ] } },
{ "type": "Feature", "properties": { "id": 29, "id_proy": "proy_001", "proyecto": "Mejoramiento de la cadena productiva bovino de leche y derivados en los 08 distritos de la provincia de Vilcas Huamán del departamento de Ayacucho", "provincia": "Vilcas Huaman", "distrito": "HUAMBALPA", "comunidad": "HUANQUISPA", "estado": "En ejecución", "presupuest": null, "beneficiar": null, "descripcio": null, "fecha_inic": null, "fecha_fin": null, "foto1": null, "foto2": null, "foto3": null }, "geometry": { "type": "Point", "coordinates": [ -73.976040654570639, -13.739846843981864 ] } },
{ "type": "Feature", "properties": { "id": 30, "id_proy": "proy_001", "proyecto": "Mejoramiento de la cadena productiva bovino de leche y derivados en los 08 distritos de la provincia de Vilcas Huamán del departamento de Ayacucho", "provincia": "Vilcas Huaman", "distrito": "HUAMBALPA", "comunidad": "CCAYANTO", "estado": "En ejecución", "presupuest": null, "beneficiar": null, "descripcio": null, "fecha_inic": null, "fecha_fin": null, "foto1": null, "foto2": null, "foto3": null }, "geometry": { "type": "Point", "coordinates": [ -73.975538565028643, -13.746463088430442 ] } },
{ "type": "Feature", "properties": { "id": 31, "id_proy": "proy_001", "proyecto": "Mejoramiento de la cadena productiva bovino de leche y derivados en los 08 distritos de la provincia de Vilcas Huamán del departamento de Ayacucho", "provincia": "Vilcas Huaman", "distrito": "HUAMBALPA", "comunidad": "ACCMAY", "estado": "En ejecución", "presupuest": null, "beneficiar": null, "descripcio": null, "fecha_inic": null, "fecha_fin": null, "foto1": null, "foto2": null, "foto3": null }, "geometry": { "type": "Point", "coordinates": [ -73.964573577288903, -13.759606496924981 ] } },
{ "type": "Feature", "properties": { "id": 32, "id_proy": "proy_001", "proyecto": "Mejoramiento de la cadena productiva bovino de leche y derivados en los 08 distritos de la provincia de Vilcas Huamán del departamento de Ayacucho", "provincia": "Vilcas Huaman", "distrito": "HUAMBALPA", "comunidad": "HUAMBALPA", "estado": "En ejecución", "presupuest": null, "beneficiar": null, "descripcio": null, "fecha_inic": null, "fecha_fin": null, "foto1": null, "foto2": null, "foto3": null }, "geometry": { "type": "Point", "coordinates": [ -73.931508551482906, -13.750342135053296 ] } },
{ "type": "Feature", "properties": { "id": 33, "id_proy": "proy_001", "proyecto": "Mejoramiento de la cadena productiva bovino de leche y derivados en los 08 distritos de la provincia de Vilcas Huamán del departamento de Ayacucho", "provincia": "Vilcas Huaman", "distrito": "HUAMBALPA", "comunidad": "SAN ANTONIO DE COCHA", "estado": "En ejecución", "presupuest": null, "beneficiar": null, "descripcio": null, "fecha_inic": null, "fecha_fin": null, "foto1": null, "foto2": null, "foto3": null }, "geometry": { "type": "Point", "coordinates": [ -73.834783430682634, -13.763032043316354 ] } },
{ "type": "Feature", "properties": { "id": 34, "id_proy": "proy_001", "proyecto": "Mejoramiento de la cadena productiva bovino de leche y derivados en los 08 distritos de la provincia de Vilcas Huamán del departamento de Ayacucho", "provincia": "Vilcas Huaman", "distrito": "HUAMBALPA", "comunidad": "PACCAYPATA", "estado": "En ejecución", "presupuest": null, "beneficiar": null, "descripcio": null, "fecha_inic": null, "fecha_fin": null, "foto1": null, "foto2": null, "foto3": null }, "geometry": { "type": "Point", "coordinates": [ -73.964079585965379, -13.743086131349582 ] } },
{ "type": "Feature", "properties": { "id": 35, "id_proy": "proy_001", "proyecto": "Mejoramiento de la cadena productiva bovino de leche y derivados en los 08 distritos de la provincia de Vilcas Huamán del departamento de Ayacucho", "provincia": "Vilcas Huaman", "distrito": "HUAMBALPA", "comunidad": "ESCORNO", "estado": "En ejecución", "presupuest": null, "beneficiar": null, "descripcio": null, "fecha_inic": null, "fecha_fin": null, "foto1": null, "foto2": null, "foto3": null }, "geometry": { "type": "Point", "coordinates": [ -73.941700159363577, -13.738409410212432 ] } },
{ "type": "Feature", "properties": { "id": 36, "id_proy": "proy_001", "proyecto": "Mejoramiento de la cadena productiva bovino de leche y derivados en los 08 distritos de la provincia de Vilcas Huamán del departamento de Ayacucho", "provincia": "Vilcas Huaman", "distrito": "HUAMBALPA", "comunidad": "AMZARCA", "estado": "En ejecución", "presupuest": null, "beneficiar": null, "descripcio": null, "fecha_inic": null, "fecha_fin": null, "foto1": null, "foto2": null, "foto3": null }, "geometry": { "type": "Point", "coordinates": [ -73.956102840822325, -13.741940233443261 ] } },
{ "type": "Feature", "properties": { "id": 37, "id_proy": "proy_001", "proyecto": "Mejoramiento de la cadena productiva bovino de leche y derivados en los 08 distritos de la provincia de Vilcas Huamán del departamento de Ayacucho", "provincia": "Vilcas Huaman", "distrito": "HUAMBALPA", "comunidad": "RAYMINA", "estado": "En ejecución", "presupuest": null, "beneficiar": null, "descripcio": null, "fecha_inic": null, "fecha_fin": null, "foto1": null, "foto2": null, "foto3": null }, "geometry": { "type": "Point", "coordinates": [ -73.884393116719352, -13.742567845370768 ] } },
{ "type": "Feature", "properties": { "id": 38, "id_proy": "proy_001", "proyecto": "Mejoramiento de la cadena productiva bovino de leche y derivados en los 08 distritos de la provincia de Vilcas Huamán del departamento de Ayacucho", "provincia": "Vilcas Huaman", "distrito": "SAURAMA", "comunidad": "SAURAMA", "estado": "En ejecución", "presupuest": null, "beneficiar": null, "descripcio": null, "fecha_inic": null, "fecha_fin": null, "foto1": null, "foto2": null, "foto3": null }, "geometry": { "type": "Point", "coordinates": [ -73.759617791869189, -13.695608301311792 ] } },
{ "type": "Feature", "properties": { "id": 39, "id_proy": "proy_001", "proyecto": "Mejoramiento de la cadena productiva bovino de leche y derivados en los 08 distritos de la provincia de Vilcas Huamán del departamento de Ayacucho", "provincia": "Vilcas Huaman", "distrito": "SAURAMA", "comunidad": "SANTA ROSA DE HUARACASCCA", "estado": "En ejecución", "presupuest": null, "beneficiar": null, "descripcio": null, "fecha_inic": null, "fecha_fin": null, "foto1": null, "foto2": null, "foto3": null }, "geometry": { "type": "Point", "coordinates": [ -73.769133198511909, -13.696547694648423 ] } },
{ "type": "Feature", "properties": { "id": 40, "id_proy": "proy_001", "proyecto": "Mejoramiento de la cadena productiva bovino de leche y derivados en los 08 distritos de la provincia de Vilcas Huamán del departamento de Ayacucho", "provincia": "Vilcas Huaman", "distrito": "SAURAMA", "comunidad": "MUCHCAPATA", "estado": "En ejecución", "presupuest": null, "beneficiar": null, "descripcio": null, "fecha_inic": null, "fecha_fin": null, "foto1": null, "foto2": null, "foto3": null }, "geometry": { "type": "Point", "coordinates": [ -73.770866217253641, -13.693850987914795 ] } },
{ "type": "Feature", "properties": { "id": 41, "id_proy": "proy_001", "proyecto": "Mejoramiento de la cadena productiva bovino de leche y derivados en los 08 distritos de la provincia de Vilcas Huamán del departamento de Ayacucho", "provincia": "Vilcas Huaman", "distrito": "SAURAMA", "comunidad": "INMACULADA HUALLHUA", "estado": "En ejecución", "presupuest": null, "beneficiar": null, "descripcio": null, "fecha_inic": null, "fecha_fin": null, "foto1": null, "foto2": null, "foto3": null }, "geometry": { "type": "Point", "coordinates": [ -73.798359668787214, -13.70209497426565 ] } },
{ "type": "Feature", "properties": { "id": 42, "id_proy": "proy_001", "proyecto": "Mejoramiento de la cadena productiva bovino de leche y derivados en los 08 distritos de la provincia de Vilcas Huamán del departamento de Ayacucho", "provincia": "Vilcas Huaman", "distrito": "SAURAMA", "comunidad": "PRAMADERA", "estado": "En ejecución", "presupuest": null, "beneficiar": null, "descripcio": null, "fecha_inic": null, "fecha_fin": null, "foto1": null, "foto2": null, "foto3": null }, "geometry": { "type": "Point", "coordinates": [ -73.779717569985976, -13.696138734618255 ] } },
{ "type": "Feature", "properties": { "id": 43, "id_proy": "proy_001", "proyecto": "Mejoramiento de la cadena productiva bovino de leche y derivados en los 08 distritos de la provincia de Vilcas Huamán del departamento de Ayacucho", "provincia": "Vilcas Huaman", "distrito": "SAURAMA", "comunidad": "CONTAY", "estado": "En ejecución", "presupuest": null, "beneficiar": null, "descripcio": null, "fecha_inic": null, "fecha_fin": null, "foto1": null, "foto2": null, "foto3": null }, "geometry": { "type": "Point", "coordinates": [ -73.731614152575276, -13.72474164207526 ] } },
{ "type": "Feature", "properties": { "id": 44, "id_proy": "proy_001", "proyecto": "Mejoramiento de la cadena productiva bovino de leche y derivados en los 08 distritos de la provincia de Vilcas Huamán del departamento de Ayacucho", "provincia": "Vilcas Huaman", "distrito": "SAURAMA", "comunidad": "SAN FRANCISCO DE ASIS-SAURAMA", "estado": "En ejecución", "presupuest": null, "beneficiar": null, "descripcio": null, "fecha_inic": null, "fecha_fin": null, "foto1": null, "foto2": null, "foto3": null }, "geometry": { "type": "Point", "coordinates": [ -73.763699293952627, -13.689093284593438 ] } },
{ "type": "Feature", "properties": { "id": 45, "id_proy": "proy_001", "proyecto": "Mejoramiento de la cadena productiva bovino de leche y derivados en los 08 distritos de la provincia de Vilcas Huamán del departamento de Ayacucho", "provincia": "Vilcas Huaman", "distrito": "SAURAMA", "comunidad": "SAN CRISTÓBAL DE PUYACHI", "estado": "En ejecución", "presupuest": null, "beneficiar": null, "descripcio": null, "fecha_inic": null, "fecha_fin": null, "foto1": null, "foto2": null, "foto3": null }, "geometry": { "type": "Point", "coordinates": [ -73.812013265042268, -13.681691512958192 ] } },
{ "type": "Feature", "properties": { "id": 46, "id_proy": "proy_001", "proyecto": "Mejoramiento de la cadena productiva bovino de leche y derivados en los 08 distritos de la provincia de Vilcas Huamán del departamento de Ayacucho", "provincia": "Vilcas Huaman", "distrito": "INDEPENDENCIA", "comunidad": "RUNCUA", "estado": "En ejecución", "presupuest": null, "beneficiar": null, "descripcio": null, "fecha_inic": null, "fecha_fin": null, "foto1": null, "foto2": null, "foto3": null }, "geometry": { "type": "Point", "coordinates": [ -73.842976803168483, -13.877506434337135 ] } },
{ "type": "Feature", "properties": { "id": 47, "id_proy": "proy_001", "proyecto": "Mejoramiento de la cadena productiva bovino de leche y derivados en los 08 distritos de la provincia de Vilcas Huamán del departamento de Ayacucho", "provincia": "Vilcas Huaman", "distrito": "INDEPENDENCIA", "comunidad": "QUIHUAS", "estado": "En ejecución", "presupuest": null, "beneficiar": null, "descripcio": null, "fecha_inic": null, "fecha_fin": null, "foto1": null, "foto2": null, "foto3": null }, "geometry": { "type": "Point", "coordinates": [ -73.833874405665156, -13.85388393120801 ] } },
{ "type": "Feature", "properties": { "id": 48, "id_proy": "proy_001", "proyecto": "Mejoramiento de la cadena productiva bovino de leche y derivados en los 08 distritos de la provincia de Vilcas Huamán del departamento de Ayacucho", "provincia": "Vilcas Huaman", "distrito": "INDEPENDENCIA", "comunidad": "OCCO", "estado": "En ejecución", "presupuest": null, "beneficiar": null, "descripcio": null, "fecha_inic": null, "fecha_fin": null, "foto1": null, "foto2": null, "foto3": null }, "geometry": { "type": "Point", "coordinates": [ -73.874449516777787, -13.894676681940693 ] } },
{ "type": "Feature", "properties": { "id": 49, "id_proy": "proy_001", "proyecto": "Mejoramiento de la cadena productiva bovino de leche y derivados en los 08 distritos de la provincia de Vilcas Huamán del departamento de Ayacucho", "provincia": "Vilcas Huaman", "distrito": "INDEPENDENCIA", "comunidad": "UPIRAY", "estado": "En ejecución", "presupuest": null, "beneficiar": null, "descripcio": null, "fecha_inic": null, "fecha_fin": null, "foto1": null, "foto2": null, "foto3": null }, "geometry": { "type": "Point", "coordinates": [ -73.882418163702425, -13.847032838425287 ] } },
{ "type": "Feature", "properties": { "id": 50, "id_proy": "proy_001", "proyecto": "Mejoramiento de la cadena productiva bovino de leche y derivados en los 08 distritos de la provincia de Vilcas Huamán del departamento de Ayacucho", "provincia": "Vilcas Huaman", "distrito": "INDEPENDENCIA", "comunidad": "YANANACO", "estado": "En ejecución", "presupuest": null, "beneficiar": null, "descripcio": null, "fecha_inic": null, "fecha_fin": null, "foto1": null, "foto2": null, "foto3": null }, "geometry": { "type": "Point", "coordinates": [ -73.862869064438257, -13.907127692760392 ] } },
{ "type": "Feature", "properties": { "id": 51, "id_proy": "proy_001", "proyecto": "Mejoramiento de la cadena productiva bovino de leche y derivados en los 08 distritos de la provincia de Vilcas Huamán del departamento de Ayacucho", "provincia": "Vilcas Huaman", "distrito": "ACCOMARCA", "comunidad": "ACCOMARCA", "estado": "En ejecución", "presupuest": null, "beneficiar": null, "descripcio": null, "fecha_inic": null, "fecha_fin": null, "foto1": null, "foto2": null, "foto3": null }, "geometry": { "type": "Point", "coordinates": [ -73.90407279975571, -13.800887165317439 ] } },
{ "type": "Feature", "properties": { "id": 52, "id_proy": "proy_001", "proyecto": "Mejoramiento de la cadena productiva bovino de leche y derivados en los 08 distritos de la provincia de Vilcas Huamán del departamento de Ayacucho", "provincia": "Vilcas Huaman", "distrito": "ACCOMARCA", "comunidad": "HUARCAS", "estado": "En ejecución", "presupuest": null, "beneficiar": null, "descripcio": null, "fecha_inic": null, "fecha_fin": null, "foto1": null, "foto2": null, "foto3": null }, "geometry": { "type": "Point", "coordinates": [ -73.849628477322653, -13.820330987742212 ] } },
{ "type": "Feature", "properties": { "id": 53, "id_proy": "proy_001", "proyecto": "Mejoramiento de la cadena productiva bovino de leche y derivados en los 08 distritos de la provincia de Vilcas Huamán del departamento de Ayacucho", "provincia": "Vilcas Huaman", "distrito": "ACCOMARCA", "comunidad": "PONGOCOCHA", "estado": "En ejecución", "presupuest": null, "beneficiar": null, "descripcio": null, "fecha_inic": null, "fecha_fin": null, "foto1": null, "foto2": null, "foto3": null }, "geometry": { "type": "Point", "coordinates": [ -73.848308467720315, -13.801786067561984 ] } },
{ "type": "Feature", "properties": { "id": 54, "id_proy": "proy_001", "proyecto": "Mejoramiento de la cadena productiva bovino de leche y derivados en los 08 distritos de la provincia de Vilcas Huamán del departamento de Ayacucho", "provincia": "Vilcas Huaman", "distrito": "ACCOMARCA", "comunidad": "PONTURCO", "estado": "En ejecución", "presupuest": null, "beneficiar": null, "descripcio": null, "fecha_inic": null, "fecha_fin": null, "foto1": null, "foto2": null, "foto3": null }, "geometry": { "type": "Point", "coordinates": [ -73.857629517120941, -13.782820040023955 ] } },
{ "type": "Feature", "properties": { "id": 55, "id_proy": "proy_001", "proyecto": "Mejoramiento de la cadena productiva bovino de leche y derivados en los 08 distritos de la provincia de Vilcas Huamán del departamento de Ayacucho", "provincia": "Vilcas Huaman", "distrito": "CARHUANCA", "comunidad": "CARHUANCA", "estado": "En ejecución", "presupuest": null, "beneficiar": null, "descripcio": null, "fecha_inic": null, "fecha_fin": null, "foto1": null, "foto2": null, "foto3": null }, "geometry": { "type": "Point", "coordinates": [ -73.787094034688721, -13.742409930111597 ] } },
{ "type": "Feature", "properties": { "id": 56, "id_proy": "proy_001", "proyecto": "Mejoramiento de la cadena productiva bovino de leche y derivados en los 08 distritos de la provincia de Vilcas Huamán del departamento de Ayacucho", "provincia": "Vilcas Huaman", "distrito": "CARHUANCA", "comunidad": "SAN MIGUEL DE RAYME", "estado": "En ejecución", "presupuest": null, "beneficiar": null, "descripcio": null, "fecha_inic": null, "fecha_fin": null, "foto1": null, "foto2": null, "foto3": null }, "geometry": { "type": "Point", "coordinates": [ -73.803719677103572, -13.753403261615816 ] } },
{ "type": "Feature", "properties": { "id": 57, "id_proy": "proy_001", "proyecto": "Mejoramiento de la cadena productiva bovino de leche y derivados en los 08 distritos de la provincia de Vilcas Huamán del departamento de Ayacucho", "provincia": "Vilcas Huaman", "distrito": "CARHUANCA", "comunidad": "RAYME ALTO", "estado": "En ejecución", "presupuest": null, "beneficiar": null, "descripcio": null, "fecha_inic": null, "fecha_fin": null, "foto1": null, "foto2": null, "foto3": null }, "geometry": { "type": "Point", "coordinates": [ -73.804652996776383, -13.756130336668519 ] } },
{ "type": "Feature", "properties": { "id": 58, "id_proy": "proy_001", "proyecto": "Mejoramiento de la cadena productiva bovino de leche y derivados en los 08 distritos de la provincia de Vilcas Huamán del departamento de Ayacucho", "provincia": "Vilcas Huaman", "distrito": "CARHUANCA", "comunidad": "CHILICRUZ", "estado": "En ejecución", "presupuest": null, "beneficiar": null, "descripcio": null, "fecha_inic": null, "fecha_fin": null, "foto1": null, "foto2": null, "foto3": null }, "geometry": { "type": "Point", "coordinates": [ -73.801498740702115, -13.743465735338017 ] } },
{ "type": "Feature", "properties": { "id": 59, "id_proy": "proy_001", "proyecto": "Mejoramiento de la cadena productiva bovino de leche y derivados en los 08 distritos de la provincia de Vilcas Huamán del departamento de Ayacucho", "provincia": "Vilcas Huaman", "distrito": "CARHUANCA", "comunidad": "BELLAVISTA", "estado": "En ejecución", "presupuest": null, "beneficiar": null, "descripcio": null, "fecha_inic": null, "fecha_fin": null, "foto1": null, "foto2": null, "foto3": null }, "geometry": { "type": "Point", "coordinates": [ -73.788942453042978, -13.757346081708731 ] } },
{ "type": "Feature", "properties": { "id": 60, "id_proy": "proy_001", "proyecto": "Mejoramiento de la cadena productiva bovino de leche y derivados en los 08 distritos de la provincia de Vilcas Huamán del departamento de Ayacucho", "provincia": "Vilcas Huaman", "distrito": "CONCEPCIÓN", "comunidad": "ASTANYA", "estado": "En ejecución", "presupuest": null, "beneficiar": null, "descripcio": null, "fecha_inic": null, "fecha_fin": null, "foto1": null, "foto2": null, "foto3": null }, "geometry": { "type": "Point", "coordinates": [ -73.856513987533788, -13.570487789901543 ] } },
{ "type": "Feature", "properties": { "id": 61, "id_proy": "proy_001", "proyecto": "Mejoramiento de la cadena productiva bovino de leche y derivados en los 08 distritos de la provincia de Vilcas Huamán del departamento de Ayacucho", "provincia": "Vilcas Huaman", "distrito": "CONCEPCIÓN", "comunidad": "CHACARI", "estado": "En ejecución", "presupuest": null, "beneficiar": null, "descripcio": null, "fecha_inic": null, "fecha_fin": null, "foto1": null, "foto2": null, "foto3": null }, "geometry": { "type": "Point", "coordinates": [ -73.864717482792543, -13.550728136958421 ] } },
{ "type": "Feature", "properties": { "id": 62, "id_proy": "proy_001", "proyecto": "Mejoramiento de la cadena productiva bovino de leche y derivados en los 08 distritos de la provincia de Vilcas Huamán del departamento de Ayacucho", "provincia": "Vilcas Huaman", "distrito": "CONCEPCIÓN", "comunidad": "SAN PEDRO DE TÁNTAR", "estado": "En ejecución", "presupuest": null, "beneficiar": null, "descripcio": null, "fecha_inic": null, "fecha_fin": null, "foto1": null, "foto2": null, "foto3": null }, "geometry": { "type": "Point", "coordinates": [ -73.934054428898691, -13.521412586280517 ] } },
{ "type": "Feature", "properties": { "id": 63, "id_proy": "proy_001", "proyecto": "Mejoramiento de la cadena productiva bovino de leche y derivados en los 08 distritos de la provincia de Vilcas Huamán del departamento de Ayacucho", "provincia": "Vilcas Huaman", "distrito": "CONCEPCIÓN", "comunidad": "HUARACAYOCC", "estado": "En ejecución", "presupuest": null, "beneficiar": null, "descripcio": null, "fecha_inic": null, "fecha_fin": null, "foto1": null, "foto2": null, "foto3": null }, "geometry": { "type": "Point", "coordinates": [ -73.899572214869266, -13.527874964579114 ] } },
{ "type": "Feature", "properties": { "id": 64, "id_proy": "proy_001", "proyecto": "Mejoramiento de la cadena productiva bovino de leche y derivados en los 08 distritos de la provincia de Vilcas Huamán del departamento de Ayacucho", "provincia": "Vilcas Huaman", "distrito": "CONCEPCIÓN", "comunidad": "PACOMARCA", "estado": "En ejecución", "presupuest": null, "beneficiar": null, "descripcio": null, "fecha_inic": null, "fecha_fin": null, "foto1": null, "foto2": null, "foto3": null }, "geometry": { "type": "Point", "coordinates": [ -73.893563336802117, -13.559348690465777 ] } },
{ "type": "Feature", "properties": { "id": 65, "id_proy": "proy_001", "proyecto": "Mejoramiento de la cadena productiva bovino de leche y derivados en los 08 distritos de la provincia de Vilcas Huamán del departamento de Ayacucho", "provincia": "Vilcas Huaman", "distrito": "CONCEPCIÓN", "comunidad": "QANTOYOCC", "estado": "En ejecución", "presupuest": null, "beneficiar": null, "descripcio": null, "fecha_inic": null, "fecha_fin": null, "foto1": null, "foto2": null, "foto3": null }, "geometry": { "type": "Point", "coordinates": [ -73.914691588658101, -13.534754401126332 ] } },
{ "type": "Feature", "properties": { "id": 66, "id_proy": "proy_001", "proyecto": "Mejoramiento de la cadena productiva bovino de leche y derivados en los 08 distritos de la provincia de Vilcas Huamán del departamento de Ayacucho", "provincia": "Vilcas Huaman", "distrito": "CONCEPCIÓN", "comunidad": "PIRHUABAMBA", "estado": "En ejecución", "presupuest": null, "beneficiar": null, "descripcio": null, "fecha_inic": null, "fecha_fin": null, "foto1": null, "foto2": null, "foto3": null }, "geometry": { "type": "Point", "coordinates": [ -73.900438724240132, -13.580979031863755 ] } },
{ "type": "Feature", "properties": { "id": 67, "id_proy": "proy_002", "proyecto": "Mejoramiento de los servicios de la producción bovina de leche en la provincia de Parinacochas - Región Ayacucho\".", "provincia": "Parinacochas", "distrito": "CORACORA", "comunidad": "AYCARA", "estado": "En ejecución", "presupuest": null, "beneficiar": null, "descripcio": null, "fecha_inic": null, "fecha_fin": null, "foto1": null, "foto2": null, "foto3": null }, "geometry": { "type": "Point", "coordinates": [ -73.799178601125064, -14.985525936290699 ] } },
{ "type": "Feature", "properties": { "id": 68, "id_proy": "proy_002", "proyecto": "Mejoramiento de los servicios de la producción bovina de leche en la provincia de Parinacochas - Región Ayacucho", "provincia": "Parinacochas", "distrito": "CORACORA", "comunidad": "CORACORA", "estado": "En ejecución", "presupuest": null, "beneficiar": null, "descripcio": null, "fecha_inic": null, "fecha_fin": null, "foto1": null, "foto2": null, "foto3": null }, "geometry": { "type": "Point", "coordinates": [ -73.780763252439527, -15.017262854275984 ] } },
{ "type": "Feature", "properties": { "id": 69, "id_proy": "proy_002", "proyecto": "Mejoramiento de los servicios de la producción bovina de leche en la provincia de Parinacochas - Región Ayacucho", "provincia": "Parinacochas", "distrito": "CORACORA", "comunidad": "OCCORURO", "estado": "En ejecución", "presupuest": null, "beneficiar": null, "descripcio": null, "fecha_inic": null, "fecha_fin": null, "foto1": null, "foto2": null, "foto3": null }, "geometry": { "type": "Point", "coordinates": [ -73.8246879891459, -14.952687660600393 ] } },
{ "type": "Feature", "properties": { "id": 70, "id_proy": "proy_002", "proyecto": "Mejoramiento de los servicios de la producción bovina de leche en la provincia de Parinacochas - Región Ayacucho", "provincia": "Parinacochas", "distrito": "CORACORA", "comunidad": "MUCHAPAMPA", "estado": "En ejecución", "presupuest": null, "beneficiar": null, "descripcio": null, "fecha_inic": null, "fecha_fin": null, "foto1": null, "foto2": null, "foto3": null }, "geometry": { "type": "Point", "coordinates": [ -73.773912159656788, -15.056369151022855 ] } },
{ "type": "Feature", "properties": { "id": 71, "id_proy": "proy_002", "proyecto": "Mejoramiento de los servicios de la producción bovina de leche en la provincia de Parinacochas - Región Ayacucho", "provincia": "Parinacochas", "distrito": "CORACORA", "comunidad": "OCRA", "estado": "En ejecución", "presupuest": null, "beneficiar": null, "descripcio": null, "fecha_inic": null, "fecha_fin": null, "foto1": null, "foto2": null, "foto3": null }, "geometry": { "type": "Point", "coordinates": [ -73.753366979526973, -15.046716074667033 ] } },
{ "type": "Feature", "properties": { "id": 72, "id_proy": "proy_002", "proyecto": "Mejoramiento de los servicios de la producción bovina de leche en la provincia de Parinacochas - Región Ayacucho", "provincia": "Parinacochas", "distrito": "CORACORA", "comunidad": "TARCANAYOCC", "estado": "En ejecución", "presupuest": null, "beneficiar": null, "descripcio": null, "fecha_inic": null, "fecha_fin": null, "foto1": null, "foto2": null, "foto3": null }, "geometry": { "type": "Point", "coordinates": [ -73.752046969924621, -15.015133022831719 ] } },
{ "type": "Feature", "properties": { "id": 73, "id_proy": "proy_002", "proyecto": "Mejoramiento de los servicios de la producción bovina de leche en la provincia de Parinacochas - Región Ayacucho", "provincia": "Parinacochas", "distrito": "CORACORA", "comunidad": "HUAYLLANI", "estado": "En ejecución", "presupuest": null, "beneficiar": null, "descripcio": null, "fecha_inic": null, "fecha_fin": null, "foto1": null, "foto2": null, "foto3": null }, "geometry": { "type": "Point", "coordinates": [ -73.809989722714803, -14.965669104726569 ] } },
{ "type": "Feature", "properties": { "id": 74, "id_proy": "proy_002", "proyecto": "Mejoramiento de los servicios de la producción bovina de leche en la provincia de Parinacochas - Región Ayacucho", "provincia": "Parinacochas", "distrito": "CORACORA", "comunidad": "PASCAÑA", "estado": "En ejecución", "presupuest": null, "beneficiar": null, "descripcio": null, "fecha_inic": null, "fecha_fin": null, "foto1": null, "foto2": null, "foto3": null }, "geometry": { "type": "Point", "coordinates": [ -73.789938533908568, -14.979176933049969 ] } },
{ "type": "Feature", "properties": { "id": 75, "id_proy": "proy_002", "proyecto": "Mejoramiento de los servicios de la producción bovina de leche en la provincia de Parinacochas - Región Ayacucho", "provincia": "Parinacochas", "distrito": "CORACORA", "comunidad": "HUAQRACCASA", "estado": "En ejecución", "presupuest": null, "beneficiar": null, "descripcio": null, "fecha_inic": null, "fecha_fin": null, "foto1": null, "foto2": null, "foto3": null }, "geometry": { "type": "Point", "coordinates": [ -73.783743396817783, -14.986805454800962 ] } },
{ "type": "Feature", "properties": { "id": 76, "id_proy": "proy_002", "proyecto": "Mejoramiento de los servicios de la producción bovina de leche en la provincia de Parinacochas - Región Ayacucho", "provincia": "Parinacochas", "distrito": "CORACORA", "comunidad": "LOMASPATA", "estado": "En ejecución", "presupuest": null, "beneficiar": null, "descripcio": null, "fecha_inic": null, "fecha_fin": null, "foto1": null, "foto2": null, "foto3": null }, "geometry": { "type": "Point", "coordinates": [ -73.806280738678694, -15.007658367230691 ] } },
{ "type": "Feature", "properties": { "id": 77, "id_proy": "proy_002", "proyecto": "Mejoramiento de los servicios de la producción bovina de leche en la provincia de Parinacochas - Región Ayacucho", "provincia": "Parinacochas", "distrito": "CORACORA", "comunidad": "HUACCEPAMPA", "estado": "En ejecución", "presupuest": null, "beneficiar": null, "descripcio": null, "fecha_inic": null, "fecha_fin": null, "foto1": null, "foto2": null, "foto3": null }, "geometry": { "type": "Point", "coordinates": [ -73.764769271061297, -15.026114207008296 ] } },
{ "type": "Feature", "properties": { "id": 78, "id_proy": "proy_002", "proyecto": "Mejoramiento de los servicios de la producción bovina de leche en la provincia de Parinacochas - Región Ayacucho", "provincia": "Parinacochas", "distrito": "CORACORA", "comunidad": "ILLCOCCOCHA", "estado": "En ejecución", "presupuest": null, "beneficiar": null, "descripcio": null, "fecha_inic": null, "fecha_fin": null, "foto1": null, "foto2": null, "foto3": null }, "geometry": { "type": "Point", "coordinates": [ -73.776155366158847, -15.030325280586339 ] } },
{ "type": "Feature", "properties": { "id": 79, "id_proy": "proy_002", "proyecto": "Mejoramiento de los servicios de la producción bovina de leche en la provincia de Parinacochas - Región Ayacucho", "provincia": "Parinacochas", "distrito": "CORACORA", "comunidad": "HUALLHUA", "estado": "En ejecución", "presupuest": null, "beneficiar": null, "descripcio": null, "fecha_inic": null, "fecha_fin": null, "foto1": null, "foto2": null, "foto3": null }, "geometry": { "type": "Point", "coordinates": [ -73.777208134553348, -15.08021840426772 ] } },
{ "type": "Feature", "properties": { "id": 80, "id_proy": "proy_002", "proyecto": "Mejoramiento de los servicios de la producción bovina de leche en la provincia de Parinacochas - Región Ayacucho", "provincia": "Parinacochas", "distrito": "CORACORA", "comunidad": "CCASACCAHUA", "estado": "En ejecución", "presupuest": null, "beneficiar": null, "descripcio": null, "fecha_inic": null, "fecha_fin": null, "foto1": null, "foto2": null, "foto3": null }, "geometry": { "type": "Point", "coordinates": [ -73.761278938922544, -14.965580024323945 ] } }
]
}
